[{"OBJECT_NAME":"STARLINK-31410","OBJECT_ID":"2024-045B","EPOCH":"2026-03-09T10:52:37.312032","MEAN_MOTION":15.27577428,"ECCENTRICITY":0.00015375,"INCLINATION":43.006,"RA_OF_ASC_NODE":94.0186,"ARG_OF_PERICENTER":287.757,"MEAN_ANOMALY":72.3113,"EPHEMERIS_TYPE":0,"CLASSIFICATION_TYPE":"U","NORAD_CAT_ID":59179,"ELEMENT_SET_NO":999,"REV_AT_EPOCH":11312,"BSTAR":4.097753e-6,"MEAN_MOTION_DOT":-1.5e-6,"MEAN_MOTION_DDOT":0},{"OBJECT_NAME":"TRANSPORTER-12 OBJECT BT","OBJECT_ID":"2025-009BT","EPOCH":"2026-03-09T17:08:24.281088","MEAN_MOTION":15.27872239,"ECCENTRICITY":0.00036816,"INCLINATION":97.4094,"RA_OF_ASC_NODE":151.5992,"ARG_OF_PERICENTER":313.5044,"MEAN_ANOMALY":46.5889,"EPHEMERIS_TYPE":0,"CLASSIFICATION_TYPE":"U","NORAD_CAT_ID":62674,"ELEMENT_SET_NO":999,"REV_AT_EPOCH":12136,"BSTAR":0.000510288,"MEAN_MOTION_DOT":0.00013824,"MEAN_MOTION_DDOT":0}]
